start=new Date('2023-04-29T00:00:00.000Z').valueOf();
sats=[{"GP_ID":"230890163","MEAN_ANOMALY":"285.5028","TIME_SYSTEM":"UTC","DECAY_DATE":null,"APOAPSIS":"540.299","BSTAR":"0.00040554000000","SITE":"AFETR","OBJECT_ID":"2022-175X","TLE_LINE1":"1 54779U 22175X   23118.53097080  .00006174  00000-0  40554-3 0  9995","ARG_OF_PERICENTER":"74.6058","TLE_LINE2":"2 54779  53.2186  45.6156 0000846  74.6058 285.5028 15.08850340 20033","REF_FRAME":"TEME","PERIAPSIS":"539.129","INCLINATION":"53.2186","CLASSIFICATION_TYPE":"U","MEAN_MOTION":"15.08850340","SEMIMAJOR_AXIS":"6917.849","ELEMENT_SET_NO":"999","REV_AT_EPOCH":"2003","EPHEMERIS_TYPE":"0","PERIOD":"95.437","NORAD_CAT_ID":"54779","OBJECT_TYPE":"PAYLOAD","EPOCH":"2023-04-28T12:44:35.877120","RCS_SIZE":"LARGE","MEAN_ELEMENT_THEORY":"SGP4","COUNTRY_CODE":"US","MEAN_MOTION_DDOT":"0.0000000000000","ECCENTRICITY":"0.00008460","RA_OF_ASC_NODE":"45.6156","CENTER_NAME":"EARTH","MEAN_MOTION_DOT":"0.00006174","FILE":"3895786","LAUNCH_DATE":"2022-12-17","OBJECT_NAME":"STARLINK-5447"},{"GP_ID":"230890213","MEAN_ANOMALY":"229.2021","APOAPSIS":"540.162","DECAY_DATE":null,"TIME_SYSTEM":"UTC","BSTAR":"0.00015049000000","SITE":"AFETR","TLE_LINE1":"1 54780U 22175Y   23118.77750830  .00002108  00000-0  15049-3 0  9996","ARG_OF_PERICENTER":"130.9021","OBJECT_ID":"2022-175Y","CLASSIFICATION_TYPE":"U","TLE_LINE2":"2 54780  53.2179  44.3084 0000576 130.9021 229.2021 15.08834218 20077","REF_FRAME":"TEME","PERIAPSIS":"539.365","INCLINATION":"53.2179","SEMIMAJOR_AXIS":"6917.898","MEAN_MOTION":"15.08834218","EPHEMERIS_TYPE":"0","ELEMENT_SET_NO":"999","REV_AT_EPOCH":"2007","PERIOD":"95.438","OBJECT_TYPE":"PAYLOAD","EPOCH":"2023-04-28T18:39:36.717120","NORAD_CAT_ID":"54780","MEAN_ELEMENT_THEORY":"SGP4","RCS_SIZE":"LARGE","COUNTRY_CODE":"US","ECCENTRICITY":"0.00005760","MEAN_MOTION_DDOT":"0.0000000000000","MEAN_MOTION_DOT":"0.00002108","FILE":"3895797","RA_OF_ASC_NODE":"44.3084","CENTER_NAME":"EARTH","LAUNCH_DATE":"2022-12-17","OBJECT_NAME":"STARLINK-5449"},{"COUNTRY_CODE":"US","ECCENTRICITY":"0.00018000","MEAN_MOTION_DDOT":"0.0000000000000","MEAN_MOTION_DOT":"-0.00000964","FILE":"3895797","RA_OF_ASC_NODE":"45.4303","CENTER_NAME":"EARTH","LAUNCH_DATE":"2022-12-17","OBJECT_NAME":"STARLINK-5443","EPHEMERIS_TYPE":"0","ELEMENT_SET_NO":"999","REV_AT_EPOCH":"2003","PERIOD":"95.540","OBJECT_TYPE":"PAYLOAD","EPOCH":"2023-04-28T12:03:06.846912","NORAD_CAT_ID":"54781","MEAN_ELEMENT_THEORY":"SGP4","RCS_SIZE":"LARGE","SITE":"AFETR","TLE_LINE1":"1 54781U 22175Z   23118.50216258 -.00000964  00000-0 -44684-4 0  9997","ARG_OF_PERICENTER":"105.0078","OBJECT_ID":"2022-175Z","CLASSIFICATION_TYPE":"U","TLE_LINE2":"2 54781  53.2198  45.4303 0001800 105.0078 255.1113 15.07227438 20036","REF_FRAME":"TEME","PERIAPSIS":"543.433","INCLINATION":"53.2198","SEMIMAJOR_AXIS":"6922.814","MEAN_MOTION":"15.07227438","GP_ID":"230889960","MEAN_ANOMALY":"255.1113","DECAY_DATE":null,"APOAPSIS":"545.925","TIME_SYSTEM":"UTC","BSTAR":"-0.00004468400000"},{"SITE":"AFETR","TLE_LINE1":"1 54782U 22175AA  23118.91667824 -.00642279  00000-0 -17881-1 0  9999","ARG_OF_PERICENTER":"98.8268","OBJECT_ID":"2022-175AA","CLASSIFICATION_TYPE":"U","TLE_LINE2":"2 54782  53.2167  15.8917 0001189  98.8268 281.5666 15.38487878 20480","PERIAPSIS":"449.770","REF_FRAME":"TEME","INCLINATION":"53.2167","SEMIMAJOR_AXIS":"6828.717","MEAN_MOTION":"15.38487878","GP_ID":"230895524","MEAN_ANOMALY":"281.5666","APOAPSIS":"451.394","DECAY_DATE":null,"TIME_SYSTEM":"UTC","BSTAR":"-0.01788100000000","COUNTRY_CODE":"US","ECCENTRICITY":"0.00011890","MEAN_MOTION_DDOT":"0.0000000000000","FILE":"3896006","MEAN_MOTION_DOT":"-0.00642279","RA_OF_ASC_NODE":"15.8917","CENTER_NAME":"EARTH","LAUNCH_DATE":"2022-12-17","OBJECT_NAME":"STARLINK-5437","EPHEMERIS_TYPE":"0","ELEMENT_SET_NO":"999","REV_AT_EPOCH":"2048","PERIOD":"93.598","OBJECT_TYPE":"PAYLOAD","EPOCH":"2023-04-28T22:00:00.999936","NORAD_CAT_ID":"54782","MEAN_ELEMENT_THEORY":"SGP4","RCS_SIZE":"LARGE"},{"MEAN_ANOMALY":"280.5142","GP_ID":"230890233","BSTAR":"0.00002239900000","APOAPSIS":"540.775","DECAY_DATE":null,"TIME_SYSTEM":"UTC","TLE_LINE1":"1 54783U 22175AB  23118.78488165  .00000069  00000-0  22399-4 0  9990","ARG_OF_PERICENTER":"79.6024","OBJECT_ID":"2022-175AB","SITE":"AFETR","SEMIMAJOR_AXIS":"6917.843","MEAN_MOTION":"15.08852247","CLASSIFICATION_TYPE":"U","TLE_LINE2":"2 54783  53.2179  44.3528 0001543  79.6024 280.5142 15.08852247 20076","REF_FRAME":"TEME","PERIAPSIS":"538.641","INCLINATION":"53.2179","PERIOD":"95.437","EPHEMERIS_TYPE":"0","ELEMENT_SET_NO":"999","REV_AT_EPOCH":"2007","MEAN_ELEMENT_THEORY":"SGP4","RCS_SIZE":"LARGE","OBJECT_TYPE":"PAYLOAD","EPOCH":"2023-04-28T18:50:13.774560","NORAD_CAT_ID":"54783","ECCENTRICITY":"0.00015430","MEAN_MOTION_DDOT":"0.0000000000000","COUNTRY_CODE":"US","LAUNCH_DATE":"2022-12-17","OBJECT_NAME":"STARLINK-5439","FILE":"3895790","MEAN_MOTION_DOT":"0.00000069","RA_OF_ASC_NODE":"44.3528","CENTER_NAME":"EARTH"},{"MEAN_ANOMALY":"281.0411","GP_ID":"230887679","BSTAR":"0.00026687000000","TIME_SYSTEM":"UTC","DECAY_DATE":null,"APOAPSIS":"540.823","OBJECT_ID":"2022-175AC","TLE_LINE1":"1 54784U 22175AC  23118.56818692  .00003962  00000-0  26687-3 0  9997","ARG_OF_PERICENTER":"79.0759","SITE":"AFETR","MEAN_MOTION":"15.08844898","SEMIMAJOR_AXIS":"6917.865","INCLINATION":"53.2199","TLE_LINE2":"2 54784  53.2199  60.0989 0001580  79.0759 281.0411 15.08844898 21995","REF_FRAME":"TEME","PERIAPSIS":"538.637","CLASSIFICATION_TYPE":"U","PERIOD":"95.437","REV_AT_EPOCH":"2199","ELEMENT_SET_NO":"999","EPHEMERIS_TYPE":"0","RCS_SIZE":"LARGE","MEAN_ELEMENT_THEORY":"SGP4","NORAD_CAT_ID":"54784","EPOCH":"2023-04-28T13:38:11.349888","OBJECT_TYPE":"PAYLOAD","MEAN_MOTION_DDOT":"0.0000000000000","ECCENTRICITY":"0.00015800","COUNTRY_CODE":"US","OBJECT_NAME":"STARLINK-5442","LAUNCH_DATE":"2022-12-17","CENTER_NAME":"EARTH","RA_OF_ASC_NODE":"60.0989","MEAN_MOTION_DOT":"0.00003962","FILE":"3895770"},{"RA_OF_ASC_NODE":"12.4363","CENTER_NAME":"EARTH","MEAN_MOTION_DOT":"-0.00025377","FILE":"3895805","LAUNCH_DATE":"2022-12-17","OBJECT_NAME":"STARLINK-5440","COUNTRY_CODE":"US","MEAN_MOTION_DDOT":"0.0000000000000","ECCENTRICITY":"0.00010980","NORAD_CAT_ID":"54785","OBJECT_TYPE":"PAYLOAD","EPOCH":"2023-04-28T22:00:00.999936","RCS_SIZE":"LARGE","MEAN_ELEMENT_THEORY":"SGP4","ELEMENT_SET_NO":"999","REV_AT_EPOCH":"2052","EPHEMERIS_TYPE":"0","PERIOD":"92.146","TLE_LINE2":"2 54785  53.2150  12.4363 0001098  78.3586 216.8964 15.62742602 20521","REF_FRAME":"TEME","PERIAPSIS":"378.999","INCLINATION":"53.2150","CLASSIFICATION_TYPE":"U","MEAN_MOTION":"15.62742602","SEMIMAJOR_AXIS":"6757.876","SITE":"AFETR","OBJECT_ID":"2022-175AD","ARG_OF_PERICENTER":"78.3586","TLE_LINE1":"1 54785U 22175AD  23118.91667824 -.00025377  00000-0 -27235-3 0  9992","TIME_SYSTEM":"UTC","APOAPSIS":"380.483","DECAY_DATE":null,"BSTAR":"-0.00027235000000","GP_ID":"230890419","MEAN_ANOMALY":"216.8964"},{"MEAN_MOTION_DOT":"0.00003962","FILE":"3895453","CENTER_NAME":"EARTH","RA_OF_ASC_NODE":"45.5039","OBJECT_NAME":"STARLINK-5438","LAUNCH_DATE":"2022-12-17","COUNTRY_CODE":"US","ECCENTRICITY":"0.00013610","MEAN_MOTION_DDOT":"0.0000000000000","EPOCH":"2023-04-28T12:19:26.763744","OBJECT_TYPE":"PAYLOAD","NORAD_CAT_ID":"54786","MEAN_ELEMENT_THEORY":"SGP4","RCS_SIZE":"LARGE","EPHEMERIS_TYPE":"0","REV_AT_EPOCH":"2003","ELEMENT_SET_NO":"999","PERIOD":"95.438","CLASSIFICATION_TYPE":"U","INCLINATION":"53.2204","TLE_LINE2":"2 54786  53.2204  45.5039 0001361  84.3396 275.7752 15.08835532 20038","REF_FRAME":"TEME","PERIAPSIS":"538.818","SEMIMAJOR_AXIS":"6917.894","MEAN_MOTION":"15.08835532","SITE":"AFETR","TLE_LINE1":"1 54786U 22175AE  23118.51350421  .00003962  00000-0  26692-3 0  9991","ARG_OF_PERICENTER":"84.3396","OBJECT_ID":"2022-175AE","DECAY_DATE":null,"APOAPSIS":"540.701","TIME_SYSTEM":"UTC","BSTAR":"0.00026692000000","GP_ID":"230856355","MEAN_ANOMALY":"275.7752"},{"SEMIMAJOR_AXIS":"6917.838","MEAN_MOTION":"15.08853837","CLASSIFICATION_TYPE":"U","TLE_LINE2":"2 54787  53.2178  60.0751 0001358  82.5984 277.5163 15.08853837 19831","PERIAPSIS":"538.764","REF_FRAME":"TEME","INCLINATION":"53.2178","TLE_LINE1":"1 54787U 22175AF  23118.56450761  .00000122  00000-0  25729-4 0  9991","ARG_OF_PERICENTER":"82.5984","OBJECT_ID":"2022-175AF","SITE":"AFETR","BSTAR":"0.00002572900000","APOAPSIS":"540.643","DECAY_DATE":null,"TIME_SYSTEM":"UTC","MEAN_ANOMALY":"277.5163","GP_ID":"230890894","LAUNCH_DATE":"2022-12-17","OBJECT_NAME":"STARLINK-5441","FILE":"3895806","MEAN_MOTION_DOT":"0.00000122","RA_OF_ASC_NODE":"60.0751","CENTER_NAME":"EARTH","ECCENTRICITY":"0.00013580","MEAN_MOTION_DDOT":"0.0000000000000","COUNTRY_CODE":"US","MEAN_ELEMENT_THEORY":"SGP4","RCS_SIZE":"LARGE","OBJECT_TYPE":"PAYLOAD","EPOCH":"2023-04-28T13:32:53.457504","NORAD_CAT_ID":"54787","PERIOD":"95.437","EPHEMERIS_TYPE":"0","ELEMENT_SET_NO":"999","REV_AT_EPOCH":"1983"},{"APOAPSIS":"540.552","DECAY_DATE":null,"TIME_SYSTEM":"UTC","BSTAR":"0.00227100000000","GP_ID":"230888179","MEAN_ANOMALY":"299.2722","CLASSIFICATION_TYPE":"U","INCLINATION":"53.2176","REF_FRAME":"TEME","TLE_LINE2":"2 54788  53.2176  45.1385 0001012 105.6532 299.2722 15.08805060  1300","PERIAPSIS":"539.152","SEMIMAJOR_AXIS":"6917.987","MEAN_MOTION":"15.08805060","SITE":"AFETR","TLE_LINE1":"1 54788U 22175AG  23118.58334491  .00036005  00000-0  22710-2 0  9999","ARG_OF_PERICENTER":"105.6532","OBJECT_ID":"2022-175AG","EPOCH":"2023-04-28T14:00:01.000224","OBJECT_TYPE":"PAYLOAD","NORAD_CAT_ID":"54788","MEAN_ELEMENT_THEORY":"SGP4","RCS_SIZE":"LARGE","EPHEMERIS_TYPE":"0","REV_AT_EPOCH":"130","ELEMENT_SET_NO":"999","PERIOD":"95.440","FILE":"3895770","MEAN_MOTION_DOT":"0.00036005","CENTER_NAME":"EARTH","RA_OF_ASC_NODE":"45.1385","OBJECT_NAME":"STARLINK-5399","LAUNCH_DATE":"2022-12-17","COUNTRY_CODE":"US","ECCENTRICITY":"0.00010120","MEAN_MOTION_DDOT":"0.0000000000000"}];
